
# Worst residual: 55.22 km
# MJD 59415.000000 (2021 Jul 20  0:00)
2018-103B = NORAD 43846 = Chang'e 4 booster
1 43846U 18103B   21201.49919926  .00000000  00000-0  00000-0 2 11460
2 43846 062.7218 039.0105 5743759 057.8513 155.6630 00.04684857    08

# Worst residual: 47.77 km
# MJD 59416.000000 (2021 Jul 21  0:00)
2018-103B = NORAD 43846 = Chang'e 4 booster
1 43846U 18103B   21202.49919926  .00000000  00000-0  00000-0 2 11461
2 43846 062.3889 038.5225 5760860 057.3546 174.6704 00.04703160    00

# Worst residual: 37.03 km
# MJD 59417.000000 (2021 Jul 22  0:00)
2018-103B = NORAD 43846 = Chang'e 4 booster
1 43846U 18103B   21203.49919926  .00000000  00000-0  00000-0 2 11462
2 43846 062.1057 038.0069 5758745 057.0440 193.2670 00.04700717    09

# Worst residual: 28.90 km
# MJD 59418.000000 (2021 Jul 23  0:00)
2018-103B = NORAD 43846 = Chang'e 4 booster
1 43846U 18103B   21204.49919926  .00000000  00000-0  00000-0 2 11463
2 43846 061.9142 037.5626 5749615 056.8071 211.4473 00.04687892    09

# Worst residual: 23.43 km
# MJD 59419.000000 (2021 Jul 24  0:00)
2018-103B = NORAD 43846 = Chang'e 4 booster
1 43846U 18103B   21205.49919926  .00000000  00000-0  00000-0 2 11464
2 43846 061.8000 037.2070 5742917 056.6060 229.2797 00.04672037    06

# Worst residual: 19.77 km
# MJD 59420.000000 (2021 Jul 25  0:00)
2018-103B = NORAD 43846 = Chang'e 4 booster
1 43846U 18103B   21206.49919926  .00000000  00000-0  00000-0 2 11465
2 43846 061.7392 036.9231 5742258 056.4459 246.8257 00.04656639    08

# Worst residual: 17.29 km
# MJD 59421.000000 (2021 Jul 26  0:00)
2018-103B = NORAD 43846 = Chang'e 4 booster
1 43846U 18103B   21207.49919926  .00000000  00000-0  00000-0 2 11466
2 43846 061.7152 036.6895 5747488 056.3366 264.1392 00.04642733    04

# Worst residual: 15.78 km
# MJD 59422.000000 (2021 Jul 27  0:00)
2018-103B = NORAD 43846 = Chang'e 4 booster
1 43846U 18103B   21208.49919926  .00000000  00000-0  00000-0 2 11467
2 43846 061.7193 036.4911 5756692 056.2713 281.2743 00.04629555    05

# Worst residual: 15.20 km
# MJD 59423.000000 (2021 Jul 28  0:00)
2018-103B = NORAD 43846 = Chang'e 4 booster
1 43846U 18103B   21209.49919926  .00000000  00000-0  00000-0 2 11468
2 43846 061.7483 036.3202 5767517 056.2155 298.2876 00.04614270    00

# Worst residual: 16.50 km
# MJD 59424.000000 (2021 Jul 29  0:00)
2018-103B = NORAD 43846 = Chang'e 4 booster
1 43846U 18103B   21210.49919926  .00000000  00000-0  00000-0 2 11460
2 43846 061.8001 036.1843 5778695 056.0821 315.2359 00.04590236    04

# Worst residual: 17.73 km
# MJD 59425.000000 (2021 Jul 30  0:00)
2018-103B = NORAD 43846 = Chang'e 4 booster
1 43846U 18103B   21211.49919926  .00000000  00000-0  00000-0 2 11461
2 43846 061.8733 036.0883 5791487 055.7578 332.1018 00.04548897    04

# Worst residual: 15.41 km
# MJD 59426.000000 (2021 Jul 31  0:00)
2018-103B = NORAD 43846 = Chang'e 4 booster
1 43846U 18103B   21212.49919926  .00000000  00000-0  00000-0 2 11462
2 43846 061.9334 036.0618 5798940 055.3338 348.6423 00.04514120    03

# Worst residual: 4.98 km
# MJD 59427.000000 (2021 Aug  1  0:00)
2018-103B = NORAD 43846 = Chang'e 4 booster
1 43846U 18103B   21213.49919926  .00000000  00000-0  00000-0 2 11463
2 43846 061.9352 036.0580 5775096 055.2483 004.9469 00.04550188    04

# Worst residual: 4.80 km
# MJD 59428.000000 (2021 Aug  2  0:00)
2018-103B = NORAD 43846 = Chang'e 4 booster
1 43846U 18103B   21214.49919926  .00000000  00000-0  00000-0 2 11464
2 43846 061.9413 036.0338 5769806 055.2913 021.3553 00.04556849    00

# Worst residual: 4.29 km
# MJD 59429.000000 (2021 Aug  3  0:00)
2018-103B = NORAD 43846 = Chang'e 4 booster
1 43846U 18103B   21215.49919926  .00000000  00000-0  00000-0 2 11465
2 43846 061.9550 036.0228 5770506 055.4051 037.6752 00.04548410    00

# Worst residual: 4.06 km
# MJD 59430.000000 (2021 Aug  4  0:00)
2018-103B = NORAD 43846 = Chang'e 4 booster
1 43846U 18103B   21216.49919926  .00000000  00000-0  00000-0 2 11466
2 43846 061.9470 036.0237 5767451 055.5401 053.9453 00.04539731    01

# Worst residual: 7.79 km
# MJD 59431.000000 (2021 Aug  5  0:00)
2018-103B = NORAD 43846 = Chang'e 4 booster
1 43846U 18103B   21217.49919926  .00000000  00000-0  00000-0 2 11467
2 43846 061.9009 036.0193 5758821 055.6959 070.1933 00.04531253    05

# Worst residual: 11.53 km
# MJD 59432.000000 (2021 Aug  6  0:00)
2018-103B = NORAD 43846 = Chang'e 4 booster
1 43846U 18103B   21218.49919926  .00000000  00000-0  00000-0 2 11468
2 43846 061.8124 035.9920 5743495 055.8721 086.4378 00.04522248    05

# Worst residual: 15.05 km
# MJD 59433.000000 (2021 Aug  7  0:00)
2018-103B = NORAD 43846 = Chang'e 4 booster
1 43846U 18103B   21219.49919926  .00000000  00000-0  00000-0 2 11469
2 43846 061.6862 035.9291 5720717 056.0601 102.6968 00.04512147    08

# Worst residual: 18.16 km
# MJD 59434.000000 (2021 Aug  8  0:00)
2018-103B = NORAD 43846 = Chang'e 4 booster
1 43846U 18103B   21220.49919926  .00000000  00000-0  00000-0 2 11461
2 43846 061.5327 035.8242 5690261 056.2430 118.9894 00.04500539    00

# Worst residual: 20.63 km
# MJD 59435.000000 (2021 Aug  9  0:00)
2018-103B = NORAD 43846 = Chang'e 4 booster
1 43846U 18103B   21221.49919926  .00000000  00000-0  00000-0 2 11462
2 43846 061.3655 035.6779 5652593 056.3978 135.3347 00.04487111    05

# Worst residual: 22.24 km
# MJD 59436.000000 (2021 Aug 10  0:00)
2018-103B = NORAD 43846 = Chang'e 4 booster
1 43846U 18103B   21222.49919926  .00000000  00000-0  00000-0 2 11463
2 43846 061.1990 035.4971 5609012 056.4979 151.7488 00.04471631    05

# Worst residual: 22.76 km
# MJD 59437.000000 (2021 Aug 11  0:00)
2018-103B = NORAD 43846 = Chang'e 4 booster
1 43846U 18103B   21223.49919926  .00000000  00000-0  00000-0 2 11464
2 43846 061.0460 035.2937 5561757 056.5171 168.2423 00.04453975    07

# Worst residual: 22.19 km
# MJD 59438.000000 (2021 Aug 12  0:00)
2018-103B = NORAD 43846 = Chang'e 4 booster
1 43846U 18103B   21224.49919926  .00000000  00000-0  00000-0 2 11465
2 43846 060.9163 035.0818 5514013 056.4350 184.8158 00.04434180    08

# Worst residual: 20.25 km
# MJD 59439.000000 (2021 Aug 13  0:00)
2018-103B = NORAD 43846 = Chang'e 4 booster
1 43846U 18103B   21225.49919926  .00000000  00000-0  00000-0 2 11466
2 43846 060.8145 034.8748 5469774 056.2436 201.4569 00.04412502    08
